ADDRESS,FIRST APPROACH,SECOND APPROACH,GO-LIVE DATE,LATITUDE,LONGITUDE,LOCATION
3843 W 111th (Speed Camera),EB,WB,01/13/2014,41.69120239624487,-87.71721139909997,"{'needs_recoding': False, 'longitude': '-87.71721139909997', 'human_address': '{""address"":"""",""city"":"""",""state"":"""",""zip"":""""}', 'latitude': '41.69120239624487'}"
19 W Chicago Ave (Speed Camera),WB,,04/29/2014,41.89655610710888,-87.62902590382873,"{'needs_recoding': False, 'longitude': '-87.62902590382873', 'human_address': '{""address"":"""",""city"":"""",""state"":"""",""zip"":""""}', 'latitude': '41.89655610710888'}"
2445 W 51st St (Speed Camera),EB,,02/24/2014,41.801012880525555,-87.68607060493738,"{'needs_recoding': False, 'longitude': '-87.68607060493738', 'human_address': '{""address"":"""",""city"":"""",""state"":"""",""zip"":""""}', 'latitude': '41.801012880525555'}"
7739 S Western (Speed Camera),NB,,12/18/2013,41.752629293489285,-87.68276525603093,"{'needs_recoding': False, 'longitude': '-87.68276525603093', 'human_address': '{""address"":"""",""city"":"""",""state"":"""",""zip"":""""}', 'latitude': '41.752629293489285'}"
3832 W 79th St (Speed Camera),EB,,02/10/2014,41.749715176851936,-87.71959877920995,"{'needs_recoding': False, 'longitude': '-87.71959877920995', 'human_address': '{""address"":"""",""city"":"""",""state"":"""",""zip"":""""}', 'latitude': '41.749715176851936'}"
7826 S Pulaski Rd (Speed Camera),SB,,02/14/2014,41.75054619772355,-87.72209265589272,"{'needs_recoding': False, 'longitude': '-87.72209265589272', 'human_address': '{""address"":"""",""city"":"""",""state"":"""",""zip"":""""}', 'latitude': '41.75054619772355'}"
4925 S Archer (Speed Camera),NEB,SWB,01/31/2014,41.80365647472294,-87.72101713004055,"{'needs_recoding': False, 'longitude': '-87.72101713004055', 'human_address': '{""address"":"""",""city"":"""",""state"":"""",""zip"":""""}', 'latitude': '41.80365647472294'}"
450 N Columbus Dr (Speed Camera),SB,,05/18/2014,41.890122352505166,-87.62041639513696,"{'needs_recoding': False, 'longitude': '-87.62041639513696', 'human_address': '{""address"":"""",""city"":"""",""state"":"""",""zip"":""""}', 'latitude': '41.890122352505166'}"
2900 W Ogden Ave (Speed Camera),EB,WB,10/17/2013,41.86040786445197,-87.69867209877323,"{'needs_recoding': False, 'longitude': '-87.69867209877323', 'human_address': '{""address"":"""",""city"":"""",""state"":"""",""zip"":""""}', 'latitude': '41.86040786445197'}"
3217 W 55th St (Speed Camera),EB,,01/07/2015,41.79339237207923,-87.70434842139014,"{'needs_recoding': False, 'longitude': '-87.70434842139014', 'human_address': '{""address"":"""",""city"":"""",""state"":"""",""zip"":""""}', 'latitude': '41.79339237207923'}"
6909 S Kedzie Ave (Speed Camera),NB,,09/06/2013,41.76773186901884,-87.70273790708362,"{'needs_recoding': False, 'longitude': '-87.70273790708362', 'human_address': '{""address"":"""",""city"":"""",""state"":"""",""zip"":""""}', 'latitude': '41.76773186901884'}"
536 E Morgan Dr (Speed Camera),EB,WB,12/06/2013,41.793492645896656,-87.6118759701359,"{'needs_recoding': False, 'longitude': '-87.6118759701359', 'human_address': '{""address"":"""",""city"":"""",""state"":"""",""zip"":""""}', 'latitude': '41.793492645896656'}"
3212 W 55th St (Speed Camera),WB,,01/07/2015,41.793614646148406,-87.7041703550325,"{'needs_recoding': False, 'longitude': '-87.7041703550325', 'human_address': '{""address"":"""",""city"":"""",""state"":"""",""zip"":""""}', 'latitude': '41.793614646148406'}"
11153 S Vincennes (Speed Camera),SB,,01/08/2014,41.690701951255015,-87.66412238501842,"{'needs_recoding': False, 'longitude': '-87.66412238501842', 'human_address': '{""address"":"""",""city"":"""",""state"":"""",""zip"":""""}', 'latitude': '41.690701951255015'}"
1117 S Pulaski Rd (Speed Camera),NB,,09/05/2014,41.867401834997956,-87.72508368792016,"{'needs_recoding': False, 'longitude': '-87.72508368792016', 'human_address': '{""address"":"""",""city"":"""",""state"":"""",""zip"":""""}', 'latitude': '41.867401834997956'}"
3450 W 71ST ST (Speed Camera),EB,WB,09/06/2013,41.76439095689881,-87.70972841983624,"{'needs_recoding': False, 'longitude': '-87.70972841983624', 'human_address': '{""address"":"""",""city"":"""",""state"":"""",""zip"":""""}', 'latitude': '41.76439095689881'}"
5520 S Western (Speed Camera),NB,,11/23/2013,41.792761119965434,-87.68415735542791,"{'needs_recoding': False, 'longitude': '-87.68415735542791', 'human_address': '{""address"":"""",""city"":"""",""state"":"""",""zip"":""""}', 'latitude': '41.792761119965434'}"
7738 S Western (Speed Camera),SB,,12/18/2013,41.75271909284453,-87.68306095859297,"{'needs_recoding': False, 'longitude': '-87.68306095859297', 'human_address': '{""address"":"""",""city"":"""",""state"":"""",""zip"":""""}', 'latitude': '41.75271909284453'}"
3230 N Milwaukee Ave (Speed Camera),NB,SB,04/08/2014,41.93969900713657,-87.72507433916897,"{'needs_recoding': False, 'longitude': '-87.72507433916897', 'human_address': '{""address"":"""",""city"":"""",""state"":"""",""zip"":""""}', 'latitude': '41.93969900713657'}"
6523 N Western (Speed Camera),NB,SB,11/10/2013,42.00025951144952,-87.68980290863908,"{'needs_recoding': False, 'longitude': '-87.68980290863908', 'human_address': '{""address"":"""",""city"":"""",""state"":"""",""zip"":""""}', 'latitude': '42.00025951144952'}"
5739 N Northwest Hwy (Speed Camera),NB,SB,09/09/2014,41.98611938850496,-87.7877408267013,"{'needs_recoding': False, 'longitude': '-87.7877408267013', 'human_address': '{""address"":"""",""city"":"""",""state"":"""",""zip"":""""}', 'latitude': '41.98611938850496'}"
4433 N Western (Speed Camera),NB,,01/04/2014,41.96231378868856,-87.68856455418805,"{'needs_recoding': False, 'longitude': '-87.68856455418805', 'human_address': '{""address"":"""",""city"":"""",""state"":"""",""zip"":""""}', 'latitude': '41.96231378868856'}"
2928 S Halsted (Speed Camera),NB,SB,01/18/2014,41.84081262592384,-87.64649261049526,"{'needs_recoding': False, 'longitude': '-87.64649261049526', 'human_address': '{""address"":"""",""city"":"""",""state"":"""",""zip"":""""}', 'latitude': '41.84081262592384'}"
2712 W Irving Park  (Speed Camera),WB,,11/15/2013,41.954092657149786,-87.6965965016668,"{'needs_recoding': False, 'longitude': '-87.6965965016668', 'human_address': '{""address"":"""",""city"":"""",""state"":"""",""zip"":""""}', 'latitude': '41.954092657149786'}"
6443 W Belmont (Speed Camera),EB,,03/10/2014,41.938181258548575,-87.78765548502582,"{'needs_recoding': False, 'longitude': '-87.78765548502582', 'human_address': '{""address"":"""",""city"":"""",""state"":"""",""zip"":""""}', 'latitude': '41.938181258548575'}"
215 E 63rd St (Speed Camera),EB,WB,09/24/2014,41.78005698693417,-87.6197547203603,"{'needs_recoding': False, 'longitude': '-87.6197547203603', 'human_address': '{""address"":"""",""city"":"""",""state"":"""",""zip"":""""}', 'latitude': '41.78005698693417'}"
7833 S Pulaski Rd (Speed Camera),NB,,02/14/2014,41.75038452958284,-87.72179453872008,"{'needs_recoding': False, 'longitude': '-87.72179453872008', 'human_address': '{""address"":"""",""city"":"""",""state"":"""",""zip"":""""}', 'latitude': '41.75038452958284'}"
1142 W Irving Park (Speed Camera),EB,WB,12/06/2013,41.95454086624301,-87.65857252142276,"{'needs_recoding': False, 'longitude': '-87.65857252142276', 'human_address': '{""address"":"""",""city"":"""",""state"":"""",""zip"":""""}', 'latitude': '41.95454086624301'}"
4045 W 55th (Speed Camera),EB,,02/07/2014,41.79307966774864,-87.72495665631904,"{'needs_recoding': False, 'longitude': '-87.72495665631904', 'human_address': '{""address"":"""",""city"":"""",""state"":"""",""zip"":""""}', 'latitude': '41.79307966774864'}"
515 S Central Ave (Speed Camera),NB,,04/14/2014,41.873329240103914,-87.76446041521123,"{'needs_recoding': False, 'longitude': '-87.76446041521123', 'human_address': '{""address"":"""",""city"":"""",""state"":"""",""zip"":""""}', 'latitude': '41.873329240103914'}"
5532 S Kedzie Ave (Speed Camera),SB,NB,01/07/2015,41.79251999694851,-87.70367640326066,"{'needs_recoding': False, 'longitude': '-87.70367640326066', 'human_address': '{""address"":"""",""city"":"""",""state"":"""",""zip"":""""}', 'latitude': '41.79251999694851'}"
4123 N Central Ave (Speed Camera),NB,SB,03/31/2014,41.954128259602165,-87.76688350223966,"{'needs_recoding': False, 'longitude': '-87.76688350223966', 'human_address': '{""address"":"""",""city"":"""",""state"":"""",""zip"":""""}', 'latitude': '41.954128259602165'}"
3809 W Belmont ave  (Speed Camera),EB,,04/08/2014,41.939040255975605,-87.72264591078833,"{'needs_recoding': False, 'longitude': '-87.72264591078833', 'human_address': '{""address"":"""",""city"":"""",""state"":"""",""zip"":""""}', 'latitude': '41.939040255975605'}"
2440 W 51st St (Speed Camera),WB,,02/24/2014,41.80123574797641,-87.68589577919322,"{'needs_recoding': False, 'longitude': '-87.68589577919322', 'human_address': '{""address"":"""",""city"":"""",""state"":"""",""zip"":""""}', 'latitude': '41.80123574797641'}"
324 S Kedzie Ave (Speed Camera),NB,SB,03/17/2014,41.87659894232968,-87.70614267856668,"{'needs_recoding': False, 'longitude': '-87.70614267856668', 'human_address': '{""address"":"""",""city"":"""",""state"":"""",""zip"":""""}', 'latitude': '41.87659894232968'}"
3521 N Western (Speed Camera),NB,,01/31/2014,41.945574090874274,-87.68807785258112,"{'needs_recoding': False, 'longitude': '-87.68807785258112', 'human_address': '{""address"":"""",""city"":"""",""state"":"""",""zip"":""""}', 'latitude': '41.945574090874274'}"
3034 W Foster Ave (Speed Camera),EB,WB,10/05/2013,41.9758840401294,-87.70480112338926,"{'needs_recoding': False, 'longitude': '-87.70480112338926', 'human_address': '{""address"":"""",""city"":"""",""state"":"""",""zip"":""""}', 'latitude': '41.9758840401294'}"
2549 W Addison (Speed Camera),EB,WB,01/31/2014,41.94661819673533,-87.69054929251513,"{'needs_recoding': False, 'longitude': '-87.69054929251513', 'human_address': '{""address"":"""",""city"":"""",""state"":"""",""zip"":""""}', 'latitude': '41.94661819673533'}"
4040 W 55th (Speed Camera),WB,,02/07/2014,41.79330051203649,-87.72479036232271,"{'needs_recoding': False, 'longitude': '-87.72479036232271', 'human_address': '{""address"":"""",""city"":"""",""state"":"""",""zip"":""""}', 'latitude': '41.79330051203649'}"
341 W 76th St (Speed Camera),EB,,04/30/2014,41.756158269344546,-87.6335862634599,"{'needs_recoding': False, 'longitude': '-87.6335862634599', 'human_address': '{""address"":"""",""city"":"""",""state"":"""",""zip"":""""}', 'latitude': '41.756158269344546'}"
4436 N Western (Speed Camera),SB,,01/04/2014,41.9624218495406,-87.68886227502836,"{'needs_recoding': False, 'longitude': '-87.68886227502836', 'human_address': '{""address"":"""",""city"":"""",""state"":"""",""zip"":""""}', 'latitude': '41.9624218495406'}"
2416 W 103rd St (Speed Camera),WB,,10/17/2014,41.70648720051648,-87.68239105927896,"{'needs_recoding': False, 'longitude': '-87.68239105927896', 'human_address': '{""address"":"""",""city"":"""",""state"":"""",""zip"":""""}', 'latitude': '41.70648720051648'}"
346 W 76th St (Speed Camera),WB,,04/30/2014,41.7563743554102,-87.6338165847716,"{'needs_recoding': False, 'longitude': '-87.6338165847716', 'human_address': '{""address"":"""",""city"":"""",""state"":"""",""zip"":""""}', 'latitude': '41.7563743554102'}"
7422 S Jeffery (Speed Camera),SB,NB,01/25/2014,41.759441472271405,-87.57630061252594,"{'needs_recoding': False, 'longitude': '-87.57630061252594', 'human_address': '{""address"":"""",""city"":"""",""state"":"""",""zip"":""""}', 'latitude': '41.759441472271405'}"
4831 W Lawrence Ave (Speed Camera),EB,WB,10/11/2014,41.96790232791309,-87.74907897663441,"{'needs_recoding': False, 'longitude': '-87.74907897663441', 'human_address': '{""address"":"""",""city"":"""",""state"":"""",""zip"":""""}', 'latitude': '41.96790232791309'}"
6247 W Fullerton (Speed Camera),EB,,12/21/2013,41.9236145831186,-87.78247948955652,"{'needs_recoding': False, 'longitude': '-87.78247948955652', 'human_address': '{""address"":"""",""city"":"""",""state"":"""",""zip"":""""}', 'latitude': '41.9236145831186'}"
4429 N Broadway (Speed Camera),,NB,11/23/2013,41.962596548691735,-87.65551767517252,"{'needs_recoding': False, 'longitude': '-87.65551767517252', 'human_address': '{""address"":"""",""city"":"""",""state"":"""",""zip"":""""}', 'latitude': '41.962596548691735'}"
6510 W Bryn Mawr Ave (Speed Camera),WB,,09/05/2014,41.98299452666102,-87.79083208818419,"{'needs_recoding': False, 'longitude': '-87.79083208818419', 'human_address': '{""address"":"""",""city"":"""",""state"":"""",""zip"":""""}', 'latitude': '41.98299452666102'}"
2912 W Roosevelt Rd (Speed Camera),WB,,10/05/2013,41.86658528313424,-87.69896237494204,"{'needs_recoding': False, 'longitude': '-87.69896237494204', 'human_address': '{""address"":"""",""city"":"""",""state"":"""",""zip"":""""}', 'latitude': '41.86658528313424'}"
1638 N Ashland (Speed Camera),SB,,03/03/2014,41.91179204452259,-87.66787045896686,"{'needs_recoding': False, 'longitude': '-87.66787045896686', 'human_address': '{""address"":"""",""city"":"""",""state"":"""",""zip"":""""}', 'latitude': '41.91179204452259'}"
5440 W Grand (Speed Camera),EB,WB,12/12/2013,41.91823126606235,-87.7623370579504,"{'needs_recoding': False, 'longitude': '-87.7623370579504', 'human_address': '{""address"":"""",""city"":"""",""state"":"""",""zip"":""""}', 'latitude': '41.91823126606235'}"
1111 N Humboldt Blvd (Speed Camera),SB,NB,11/19/2013,41.901430911774796,-87.70212117023745,"{'needs_recoding': False, 'longitude': '-87.70212117023745', 'human_address': '{""address"":"""",""city"":"""",""state"":"""",""zip"":""""}', 'latitude': '41.901430911774796'}"
14 W Chicago Ave (Speed Camera),EB,,04/29/2014,41.89677912747405,-87.6287812485988,"{'needs_recoding': False, 'longitude': '-87.6287812485988', 'human_address': '{""address"":"""",""city"":"""",""state"":"""",""zip"":""""}', 'latitude': '41.89677912747405'}"
2550 W 79th (Speed Camera),WB,,12/18/2013,41.75021259302275,-87.6874210628529,"{'needs_recoding': False, 'longitude': '-87.6874210628529', 'human_address': '{""address"":"""",""city"":"""",""state"":"""",""zip"":""""}', 'latitude': '41.75021259302275'}"
5428 S Pulaski (Speed Camera),SB,,02/07/2014,41.7941545839503,-87.72333321258739,"{'needs_recoding': False, 'longitude': '-87.72333321258739', 'human_address': '{""address"":"""",""city"":"""",""state"":"""",""zip"":""""}', 'latitude': '41.7941545839503'}"
4620 W Belmont (Speed Camera),EB,WB,03/10/2014,41.938988390759555,-87.74312142256439,"{'needs_recoding': False, 'longitude': '-87.74312142256439', 'human_address': '{""address"":"""",""city"":"""",""state"":"""",""zip"":""""}', 'latitude': '41.938988390759555'}"
6330 S Martin Luther King Dr (Speed Camera),NB,SB,09/24/2014,41.779286,-87.616054,"{'needs_recoding': False, 'longitude': '-87.616054', 'human_address': '{""address"":"""",""city"":"""",""state"":"""",""zip"":""""}', 'latitude': '41.779286'}"
140 N Ashland (Speed Camera),SB,,02/07/2014,41.88451419700416,-87.66704209415728,"{'needs_recoding': False, 'longitude': '-87.66704209415728', 'human_address': '{""address"":"""",""city"":"""",""state"":"""",""zip"":""""}', 'latitude': '41.88451419700416'}"
11144 S Vincennes (Speed Camera),NB,,01/08/2014,41.69102545584918,-87.6642476900556,"{'needs_recoding': False, 'longitude': '-87.6642476900556', 'human_address': '{""address"":"""",""city"":"""",""state"":"""",""zip"":""""}', 'latitude': '41.69102545584918'}"
141 N Ashland (Speed Camera),NB,,02/07/2014,41.88451740794813,-87.66674834697315,"{'needs_recoding': False, 'longitude': '-87.66674834697315', 'human_address': '{""address"":"""",""city"":"""",""state"":"""",""zip"":""""}', 'latitude': '41.88451740794813'}"
5454 W Irving Park (Speed Camera),EB,WB,11/10/2013,41.95332954454448,-87.76426726425451,"{'needs_recoding': False, 'longitude': '-87.76426726425451', 'human_address': '{""address"":"""",""city"":"""",""state"":"""",""zip"":""""}', 'latitude': '41.95332954454448'}"
2335 W Cermak (Speed Camera),EB,,03/03/2014,41.85192952334165,-87.68464766256305,"{'needs_recoding': False, 'longitude': '-87.68464766256305', 'human_address': '{""address"":"""",""city"":"""",""state"":"""",""zip"":""""}', 'latitude': '41.85192952334165'}"
2080 W Pershing Rd (Speed Camera),EB,WB,09/07/2013,41.82300132296577,-87.67514359128938,"{'needs_recoding': False, 'longitude': '-87.67514359128938', 'human_address': '{""address"":"""",""city"":"""",""state"":"""",""zip"":""""}', 'latitude': '41.82300132296577'}"
4674 W Peterson Ave (Speed Camera),EB,,03/17/2014,41.99004267366519,-87.7453343185986,"{'needs_recoding': False, 'longitude': '-87.7453343185986', 'human_address': '{""address"":"""",""city"":"""",""state"":"""",""zip"":""""}', 'latitude': '41.99004267366519'}"
3137 W Peterson (Speed Camera),EB,WB,01/03/2014,41.9902819135942,-87.70824462568225,"{'needs_recoding': False, 'longitude': '-87.70824462568225', 'human_address': '{""address"":"""",""city"":"""",""state"":"""",""zip"":""""}', 'latitude': '41.9902819135942'}"
5885 N Ridge Ave (Speed Camera),NB,SB,03/18/2014,41.988904472466494,-87.66845572473223,"{'needs_recoding': False, 'longitude': '-87.66845572473223', 'human_address': '{""address"":"""",""city"":"""",""state"":"""",""zip"":""""}', 'latitude': '41.988904472466494'}"
10318 S Indianapolis (Speed Camera),NB,SB,12/24/2013,41.70757690291348,-87.52984826112849,"{'needs_recoding': False, 'longitude': '-87.52984826112849', 'human_address': '{""address"":"""",""city"":"""",""state"":"""",""zip"":""""}', 'latitude': '41.70757690291348'}"
3115 N Narragansett (Speed Camera),NB,,03/10/2014,41.93695084197675,-87.78574089058974,"{'needs_recoding': False, 'longitude': '-87.78574089058974', 'human_address': '{""address"":"""",""city"":"""",""state"":"""",""zip"":""""}', 'latitude': '41.93695084197675'}"
1334 W Garfield Blvd (Speed Camera),WB,,03/24/2014,41.79422646635146,-87.65870999891658,"{'needs_recoding': False, 'longitude': '-87.65870999891658', 'human_address': '{""address"":"""",""city"":"""",""state"":"""",""zip"":""""}', 'latitude': '41.79422646635146'}"
62 E 95th St (Speed Camera),EB,,10/12/2013,41.72187849819265,-87.62135432849777,"{'needs_recoding': False, 'longitude': '-87.62135432849777', 'human_address': '{""address"":"""",""city"":"""",""state"":"""",""zip"":""""}', 'latitude': '41.72187849819265'}"
2115 S Western Ave (Speed Camera),NB,,04/25/2014,41.85338493884992,-87.68552968203949,"{'needs_recoding': False, 'longitude': '-87.68552968203949', 'human_address': '{""address"":"""",""city"":"""",""state"":"""",""zip"":""""}', 'latitude': '41.85338493884992'}"
5471 W Higgins (Speed Camera),EB,WB,02/14/2014,41.96924714863934,-87.76401945149458,"{'needs_recoding': False, 'longitude': '-87.76401945149458', 'human_address': '{""address"":"""",""city"":"""",""state"":"""",""zip"":""""}', 'latitude': '41.96924714863934'}"
5816 W Jackson (Speed Camera),EB,WB,11/06/2013,41.87718940463045,-87.7703695017756,"{'needs_recoding': False, 'longitude': '-87.7703695017756', 'human_address': '{""address"":"""",""city"":"""",""state"":"""",""zip"":""""}', 'latitude': '41.87718940463045'}"
2721 W Montrose (Speed Camera),EB,WB,11/15/2013,41.96114938287925,-87.69696403378589,"{'needs_recoding': False, 'longitude': '-87.69696403378589', 'human_address': '{""address"":"""",""city"":"""",""state"":"""",""zip"":""""}', 'latitude': '41.96114938287925'}"
3646 W Madison St (Speed Camera),EB,WB,09/10/2013,41.88093818643283,-87.71789844857646,"{'needs_recoding': False, 'longitude': '-87.71789844857646', 'human_address': '{""address"":"""",""city"":"""",""state"":"""",""zip"":""""}', 'latitude': '41.88093818643283'}"
2705 W Irving Park (Speed Camera),EB,,11/15/2013,41.95387526461699,-87.69620408862693,"{'needs_recoding': False, 'longitude': '-87.69620408862693', 'human_address': '{""address"":"""",""city"":"""",""state"":"""",""zip"":""""}', 'latitude': '41.95387526461699'}"
732 N Pulaski Rd (Speed Camera),NB,SB,03/24/2014,41.89450330881178,-87.72620452246953,"{'needs_recoding': False, 'longitude': '-87.72620452246953', 'human_address': '{""address"":"""",""city"":"""",""state"":"""",""zip"":""""}', 'latitude': '41.89450330881178'}"
3047 W Jackson Blvd (Speed Camera),EB,WB,03/17/2014,41.877242773826396,-87.7029526885659,"{'needs_recoding': False, 'longitude': '-87.7029526885659', 'human_address': '{""address"":"""",""city"":"""",""state"":"""",""zip"":""""}', 'latitude': '41.877242773826396'}"
630 State St (Speed Camera),SB,,11/25/2013,41.87382420497741,-87.62774075943143,"{'needs_recoding': False, 'longitude': '-87.62774075943143', 'human_address': '{""address"":"""",""city"":"""",""state"":"""",""zip"":""""}', 'latitude': '41.87382420497741'}"
1229 Western (Speed Camera),NB,,02/24/2014,41.90387807933294,-87.68690274176198,"{'needs_recoding': False, 'longitude': '-87.68690274176198', 'human_address': '{""address"":"""",""city"":"""",""state"":"""",""zip"":""""}', 'latitude': '41.90387807933294'}"
1635 N Ashland (Speed Camera),NB,,03/03/2014,41.91168401599584,-87.66757342998466,"{'needs_recoding': False, 'longitude': '-87.66757342998466', 'human_address': '{""address"":"""",""city"":"""",""state"":"""",""zip"":""""}', 'latitude': '41.91168401599584'}"
5030 S Pulaski (Speed Camera),SB,,01/31/2014,41.80140191299459,-87.72354459803559,"{'needs_recoding': False, 'longitude': '-87.72354459803559', 'human_address': '{""address"":"""",""city"":"""",""state"":"""",""zip"":""""}', 'latitude': '41.80140191299459'}"
3111 N Ashland Ave (Speed Camera),NB,,09/26/2014,41.938253305553516,-87.66846320182256,"{'needs_recoding': False, 'longitude': '-87.66846320182256', 'human_address': '{""address"":"""",""city"":"""",""state"":"""",""zip"":""""}', 'latitude': '41.938253305553516'}"
2432 N Ashland (Speed Camera),NB,,01/25/2014,41.92620790295943,-87.66832897708693,"{'needs_recoding': False, 'longitude': '-87.66832897708693', 'human_address': '{""address"":"""",""city"":"""",""state"":"""",""zip"":""""}', 'latitude': '41.92620790295943'}"
4707 W Peterson Ave (Speed Camera),WB,,03/17/2014,41.98980766908236,-87.74622580384673,"{'needs_recoding': False, 'longitude': '-87.74622580384673', 'human_address': '{""address"":"""",""city"":"""",""state"":"""",""zip"":""""}', 'latitude': '41.98980766908236'}"
3851 W 79th St (Speed Camera),WB,,02/10/2014,41.74937090787529,-87.71910467544157,"{'needs_recoding': False, 'longitude': '-87.71910467544157', 'human_address': '{""address"":"""",""city"":"""",""state"":"""",""zip"":""""}', 'latitude': '41.74937090787529'}"
2109 E 87th St (Speed Camera),EB,WB,09/18/2014,41.7369870911534,-87.57290117806258,"{'needs_recoding': False, 'longitude': '-87.57290117806258', 'human_address': '{""address"":"""",""city"":"""",""state"":"""",""zip"":""""}', 'latitude': '41.7369870911534'}"
6250 W Fullerton (Speed Camera),WB,,12/21/2013,41.92383169923362,-87.78264224184598,"{'needs_recoding': False, 'longitude': '-87.78264224184598', 'human_address': '{""address"":"""",""city"":"""",""state"":"""",""zip"":""""}', 'latitude': '41.92383169923362'}"
3810 W Belmont Ave (Speed Camera),WB,,04/08/2014,41.93925823071868,-87.72278142793657,"{'needs_recoding': False, 'longitude': '-87.72278142793657', 'human_address': '{""address"":"""",""city"":"""",""state"":"""",""zip"":""""}', 'latitude': '41.93925823071868'}"
8345 S Ashland Ave (Speed Camera),NB,,10/11/2014,41.741741651401504,-87.66307332925098,"{'needs_recoding': False, 'longitude': '-87.66307332925098', 'human_address': '{""address"":"""",""city"":"""",""state"":"""",""zip"":""""}', 'latitude': '41.741741651401504'}"
3655 W Jackson Blvd (Speed Camera),EB,WB,09/10/2013,41.87707082846323,-87.71816831641307,"{'needs_recoding': False, 'longitude': '-87.71816831641307', 'human_address': '{""address"":"""",""city"":"""",""state"":"""",""zip"":""""}', 'latitude': '41.87707082846323'}"
3116 N Narragansett (Speed Camera),SB,,03/10/2014,41.93700435024341,-87.78603672187927,"{'needs_recoding': False, 'longitude': '-87.78603672187927', 'human_address': '{""address"":"""",""city"":"""",""state"":"""",""zip"":""""}', 'latitude': '41.93700435024341'}"
4843 W Fullerton (Speed Camera),EB,WB,01/13/2014,41.92410632982652,-87.74802266359677,"{'needs_recoding': False, 'longitude': '-87.74802266359677', 'human_address': '{""address"":"""",""city"":"""",""state"":"""",""zip"":""""}', 'latitude': '41.92410632982652'}"
5446 W Fullerton (Speed Camera),WB,,12/12/2013,41.92412849125162,-87.76299399881007,"{'needs_recoding': False, 'longitude': '-87.76299399881007', 'human_address': '{""address"":"""",""city"":"""",""state"":"""",""zip"":""""}', 'latitude': '41.92412849125162'}"
5509 W Fullerton (Speed Camera),EB,,12/12/2013,41.92389747217995,-87.76390557836874,"{'needs_recoding': False, 'longitude': '-87.76390557836874', 'human_address': '{""address"":"""",""city"":"""",""state"":"""",""zip"":""""}', 'latitude': '41.92389747217995'}"
445 W 127th St (Speed Camera),EB,WB,10/17/2013,41.66317117223548,-87.63373364696125,"{'needs_recoding': False, 'longitude': '-87.63373364696125', 'human_address': '{""address"":"""",""city"":"""",""state"":"""",""zip"":""""}', 'latitude': '41.66317117223548'}"
57 E 95th St (Speed Camera),WB,,10/12/2013,41.72165713317433,-87.62146289865515,"{'needs_recoding': False, 'longitude': '-87.62146289865515', 'human_address': '{""address"":"""",""city"":"""",""state"":"""",""zip"":""""}', 'latitude': '41.72165713317433'}"
4446 N Broadway (Speed Camera),SB,,11/23/2013,41.96288063517309,-87.6560244499908,"{'needs_recoding': False, 'longitude': '-87.6560244499908', 'human_address': '{""address"":"""",""city"":"""",""state"":"""",""zip"":""""}', 'latitude': '41.96288063517309'}"
2513 W 55th St (Speed Camera),EB,WB,01/18/2014,41.79370224937009,-87.68724427195639,"{'needs_recoding': False, 'longitude': '-87.68724427195639', 'human_address': '{""address"":"""",""city"":"""",""state"":"""",""zip"":""""}', 'latitude': '41.79370224937009'}"
3843 S Western Blvd (Speed Camera),NB,SB,09/07/2013,41.82353114733556,-87.6841140261617,"{'needs_recoding': False, 'longitude': '-87.6841140261617', 'human_address': '{""address"":"""",""city"":"""",""state"":"""",""zip"":""""}', 'latitude': '41.82353114733556'}"
4042 W Roosevelt Rd (Speed Camera),EB,WB,09/09/2014,41.866257378192785,-87.72687882014701,"{'needs_recoding': False, 'longitude': '-87.72687882014701', 'human_address': '{""address"":"""",""city"":"""",""state"":"""",""zip"":""""}', 'latitude': '41.866257378192785'}"
4929 S Pulaski (Speed Camera),NB,,01/31/2014,41.80326489471,-87.72330350914287,"{'needs_recoding': False, 'longitude': '-87.72330350914287', 'human_address': '{""address"":"""",""city"":"""",""state"":"""",""zip"":""""}', 'latitude': '41.80326489471'}"
3130 N Ashland Ave (Speed Camera),EB,,09/26/2014,41.93880546751142,-87.66877877931208,"{'needs_recoding': False, 'longitude': '-87.66877877931208', 'human_address': '{""address"":"""",""city"":"""",""state"":"""",""zip"":""""}', 'latitude': '41.93880546751142'}"
1901 E 75th St (Speed Camera),EB,WB,04/30/2014,41.758740770124234,-87.57851859043261,"{'needs_recoding': False, 'longitude': '-87.57851859043261', 'human_address': '{""address"":"""",""city"":"""",""state"":"""",""zip"":""""}', 'latitude': '41.758740770124234'}"
4124 W Foster Ave (Speed Camera),EB,WB,08/26/2013,41.975501,-87.73166979484374,"{'needs_recoding': False, 'longitude': '-87.73166979484374', 'human_address': '{""address"":"""",""city"":"""",""state"":"""",""zip"":""""}', 'latitude': '41.975501'}"
8318 S Ashland Ave (Speed Camera),SB,,10/11/2014,41.74247385456547,-87.66338547998558,"{'needs_recoding': False, 'longitude': '-87.66338547998558', 'human_address': '{""address"":"""",""city"":"""",""state"":"""",""zip"":""""}', 'latitude': '41.74247385456547'}"
2326 W Cermak (Speed Camera),WB,,03/03/2014,41.85215350507168,-87.68433838912533,"{'needs_recoding': False, 'longitude': '-87.68433838912533', 'human_address': '{""address"":"""",""city"":"""",""state"":"""",""zip"":""""}', 'latitude': '41.85215350507168'}"
2448 N Clybourn Ave (Speed Camera),NB,SB,03/28/2014,41.926153342916486,-87.67093808722792,"{'needs_recoding': False, 'longitude': '-87.67093808722792', 'human_address': '{""address"":"""",""city"":"""",""state"":"""",""zip"":""""}', 'latitude': '41.926153342916486'}"
2329 Division (Speed Camera),EB,WB,02/24/2014,41.90292940885378,-87.68576187971952,"{'needs_recoding': False, 'longitude': '-87.68576187971952', 'human_address': '{""address"":"""",""city"":"""",""state"":"""",""zip"":""""}', 'latitude': '41.90292940885378'}"
9618 S Ewing Ave (Speed Camera),NB,SB,05/31/2014,41.72075680558273,-87.53543678735923,"{'needs_recoding': False, 'longitude': '-87.53543678735923', 'human_address': '{""address"":"""",""city"":"""",""state"":"""",""zip"":""""}', 'latitude': '41.72075680558273'}"
4040 W Chicago Ave (Speed Camera),WB,,03/24/2014,41.895448620893006,-87.72765847088665,"{'needs_recoding': False, 'longitude': '-87.72765847088665', 'human_address': '{""address"":"""",""city"":"""",""state"":"""",""zip"":""""}', 'latitude': '41.895448620893006'}"
1440 W Cermak Rd (Speed Camera),WB,EB,09/02/2014,41.85250180995818,-87.66281031843234,"{'needs_recoding': False, 'longitude': '-87.66281031843234', 'human_address': '{""address"":"""",""city"":"""",""state"":"""",""zip"":""""}', 'latitude': '41.85250180995818'}"
4909 N Cicero Ave (Speed Camera),SB,NB,09/18/2014,41.970134735816295,-87.7477237971432,"{'needs_recoding': False, 'longitude': '-87.7477237971432', 'human_address': '{""address"":"""",""city"":"""",""state"":"""",""zip"":""""}', 'latitude': '41.970134735816295'}"
506 S Central Ave (Speed Camera),SB,,04/14/2014,41.87358141810132,-87.7647619684764,"{'needs_recoding': False, 'longitude': '-87.7647619684764', 'human_address': '{""address"":"""",""city"":"""",""state"":"""",""zip"":""""}', 'latitude': '41.87358141810132'}"
4432 N Lincoln (Speed Camera),NB,SB,01/04/2014,41.96226556022151,-87.68456699562915,"{'needs_recoding': False, 'longitude': '-87.68456699562915', 'human_address': '{""address"":"""",""city"":"""",""state"":"""",""zip"":""""}', 'latitude': '41.96226556022151'}"
2443 N Ashland (Speed Camera),SB,,01/25/2014,41.926418831263994,-87.66804246498943,"{'needs_recoding': False, 'longitude': '-87.66804246498943', 'human_address': '{""address"":"""",""city"":"""",""state"":"""",""zip"":""""}', 'latitude': '41.926418831263994'}"
2917 W Roosevelt (Speed Camera),EB,,10/05/2013,41.866364024167034,-87.69914296647906,"{'needs_recoding': False, 'longitude': '-87.69914296647906', 'human_address': '{""address"":"""",""city"":"""",""state"":"""",""zip"":""""}', 'latitude': '41.866364024167034'}"
6818 S Kedzie Ave (Speed Camera),SB,,09/06/2013,41.769106296454154,-87.70305895795853,"{'needs_recoding': False, 'longitude': '-87.70305895795853', 'human_address': '{""address"":"""",""city"":"""",""state"":"""",""zip"":""""}', 'latitude': '41.769106296454154'}"
115 N Ogden (Speed Camera),NB,SB,01/25/2014,41.883191521391076,-87.66411469955516,"{'needs_recoding': False, 'longitude': '-87.66411469955516', 'human_address': '{""address"":"""",""city"":"""",""state"":"""",""zip"":""""}', 'latitude': '41.883191521391076'}"
3534 N Western (Speed Camera),SB,,01/31/2014,41.9459625867886,-87.68838396394528,"{'needs_recoding': False, 'longitude': '-87.68838396394528', 'human_address': '{""address"":"""",""city"":"""",""state"":"""",""zip"":""""}', 'latitude': '41.9459625867886'}"
4041 W Chicago Ave (Speed Camera),EB,,03/24/2014,41.89522798956752,-87.72771533433409,"{'needs_recoding': False, 'longitude': '-87.72771533433409', 'human_address': '{""address"":"""",""city"":"""",""state"":"""",""zip"":""""}', 'latitude': '41.89522798956752'}"
629 State St (Speed Camera),NB,,11/25/2013,41.873849598744286,-87.62744787497319,"{'needs_recoding': False, 'longitude': '-87.62744787497319', 'human_address': '{""address"":"""",""city"":"""",""state"":"""",""zip"":""""}', 'latitude': '41.873849598744286'}"
6514 W Belmont (Speed Camera),WB,,03/10/2014,41.93837715933998,-87.78911871294291,"{'needs_recoding': False, 'longitude': '-87.78911871294291', 'human_address': '{""address"":"""",""city"":"""",""state"":"""",""zip"":""""}', 'latitude': '41.93837715933998'}"
2417 W 103rd St (Speed Camera),EB,,10/17/2014,41.70626766073214,-87.68239147238012,"{'needs_recoding': False, 'longitude': '-87.68239147238012', 'human_address': '{""address"":"""",""city"":"""",""state"":"""",""zip"":""""}', 'latitude': '41.70626766073214'}"
1226 Western (Speed Camera),SB,,02/24/2014,41.90381710275111,-87.6871949977686,"{'needs_recoding': False, 'longitude': '-87.6871949977686', 'human_address': '{""address"":"""",""city"":"""",""state"":"""",""zip"":""""}', 'latitude': '41.90381710275111'}"
5420 S Racine (Speed Camera),NB,SB,03/10/2014,41.795332774848234,-87.65504097855228,"{'needs_recoding': False, 'longitude': '-87.65504097855228', 'human_address': '{""address"":"""",""city"":"""",""state"":"""",""zip"":""""}', 'latitude': '41.795332774848234'}"
5025 S Western (Speed Camera),NB,SB,02/25/2014,41.802174029934044,-87.68410655772436,"{'needs_recoding': False, 'longitude': '-87.68410655772436', 'human_address': '{""address"":"""",""city"":"""",""state"":"""",""zip"":""""}', 'latitude': '41.802174029934044'}"
1315 W Garfield Blvd (Speed Camera),EB,,03/24/2014,41.793645091444645,-87.6578607639445,"{'needs_recoding': False, 'longitude': '-87.6578607639445', 'human_address': '{""address"":"""",""city"":"""",""state"":"""",""zip"":""""}', 'latitude': '41.793645091444645'}"
5330 Cottage Grove (Speed Camera),NB,SB,10/05/2013,41.79770388561477,-87.60644477865196,"{'needs_recoding': False, 'longitude': '-87.60644477865196', 'human_address': '{""address"":"""",""city"":"""",""state"":"""",""zip"":""""}', 'latitude': '41.79770388561477'}"
3535 E 95th St (Speed Camera),EB,,06/30/2014,41.722818322421595,-87.53756746533104,"{'needs_recoding': False, 'longitude': '-87.53756746533104', 'human_address': '{""address"":"""",""city"":"""",""state"":"""",""zip"":""""}', 'latitude': '41.722818322421595'}"
5529 S Western (Speed Camera),SB,,11/23/2013,41.79252199331773,-87.68385704739886,"{'needs_recoding': False, 'longitude': '-87.68385704739886', 'human_address': '{""address"":"""",""city"":"""",""state"":"""",""zip"":""""}', 'latitude': '41.79252199331773'}"
6125 N Cicero Ave (Speed Camera),EB,WB,03/17/2014,41.9921194114274,-87.74847678515228,"{'needs_recoding': False, 'longitude': '-87.74847678515228', 'human_address': '{""address"":"""",""city"":"""",""state"":"""",""zip"":""""}', 'latitude': '41.9921194114274'}"
5432 W Lawrence (Speed Camera),EB,WB,02/14/2014,41.96785573012919,-87.76392864369929,"{'needs_recoding': False, 'longitude': '-87.76392864369929', 'human_address': '{""address"":"""",""city"":"""",""state"":"""",""zip"":""""}', 'latitude': '41.96785573012919'}"
5433 S Pulaski (Speed Camera),NB,,02/07/2014,41.79404504596532,-87.72303636259336,"{'needs_recoding': False, 'longitude': '-87.72303636259336', 'human_address': '{""address"":"""",""city"":"""",""state"":"""",""zip"":""""}', 'latitude': '41.79404504596532'}"
3542 E 95th St (Speed Camera),WB,,06/30/2014,41.72304461975978,-87.5370407583455,"{'needs_recoding': False, 'longitude': '-87.5370407583455', 'human_address': '{""address"":"""",""city"":"""",""state"":"""",""zip"":""""}', 'latitude': '41.72304461975978'}"
3100 W Augusta Blvd (Speed Camera),EB,WB,10/17/2013,41.89932514072566,-87.70452234551168,"{'needs_recoding': False, 'longitude': '-87.70452234551168', 'human_address': '{""address"":"""",""city"":"""",""state"":"""",""zip"":""""}', 'latitude': '41.89932514072566'}"
1110 S Pulaski Rd (Speed Camera),SB,,09/05/2014,41.86760272243294,-87.7253827433152,"{'needs_recoding': False, 'longitude': '-87.7253827433152', 'human_address': '{""address"":"""",""city"":"""",""state"":"""",""zip"":""""}', 'latitude': '41.86760272243294'}"
7518 S Vincennes (Speed Camera),NB,SB,02/17/2014,41.75749703994495,-87.63183332832696,"{'needs_recoding': False, 'longitude': '-87.63183332832696', 'human_address': '{""address"":"""",""city"":"""",""state"":"""",""zip"":""""}', 'latitude': '41.75749703994495'}"
2108 S Western Ave (Speed Camera),SB,,04/25/2014,41.853572622430164,-87.6858278546488,"{'needs_recoding': False, 'longitude': '-87.6858278546488', 'human_address': '{""address"":"""",""city"":"""",""state"":"""",""zip"":""""}', 'latitude': '41.853572622430164'}"
1507 W 83rd St (Speed Camera),EB,WB,10/11/2014,41.742993034938884,-87.66113775973551,"{'needs_recoding': False, 'longitude': '-87.66113775973551', 'human_address': '{""address"":"""",""city"":"""",""state"":"""",""zip"":""""}', 'latitude': '41.742993034938884'}"
449 N Columbus Dr (Speed Camera),NB,,05/18/2014,41.89003775504898,-87.62017903427099,"{'needs_recoding': False, 'longitude': '-87.62017903427099', 'human_address': '{""address"":"""",""city"":"""",""state"":"""",""zip"":""""}', 'latitude': '41.89003775504898'}"
6226 W Irving Park Rd (Speed Camera),EB,WB,04/26/2014,41.95307482555687,-87.78282553773761,"{'needs_recoding': False, 'longitude': '-87.78282553773761', 'human_address': '{""address"":"""",""city"":"""",""state"":"""",""zip"":""""}', 'latitude': '41.95307482555687'}"
3200 S Archer Ave (Speed Camera),WB,EB,11/09/2015,41.83595801848586,-87.66879026653764,"{'needs_recoding': False, 'longitude': '-87.66879026653764', 'human_address': '{""address"":"""",""city"":"""",""state"":"""",""zip"":""""}', 'latitude': '41.83595801848586'}"
4042 W North Ave (Speed Camera),WB,,11/09/2015,41.90997242450237,-87.72805040969816,"{'needs_recoding': False, 'longitude': '-87.72805040969816', 'human_address': '{""address"":"""",""city"":"""",""state"":"""",""zip"":""""}', 'latitude': '41.90997242450237'}"
4053 W North Ave (Speed Camera),EB,,11/09/2015,41.90974567444195,-87.72856329512945,"{'needs_recoding': False, 'longitude': '-87.72856329512945', 'human_address': '{""address"":"""",""city"":"""",""state"":"""",""zip"":""""}', 'latitude': '41.90974567444195'}"
5120 N Pulaski Rd (Speed Camera),NB,SB,08/26/2013,41.97433265461055,-87.728215,"{'needs_recoding': False, 'longitude': '-87.728215', 'human_address': '{""address"":"""",""city"":"""",""state"":"""",""zip"":""""}', 'latitude': '41.97433265461055'}"
324 E Illinois St (Speed Camera),EB,,04/14/2014,41.89091009572781,-87.61934752145963,"{'needs_recoding': False, 'longitude': '-87.61934752145963', 'human_address': '{""address"":"""",""city"":"""",""state"":"""",""zip"":""""}', 'latitude': '41.89091009572781'}"
2603 W 79th (Speed Camera),EB,,01/08/2014,41.74985294026319,-87.68798347502599,"{'needs_recoding': False, 'longitude': '-87.68798347502599', 'human_address': '{""address"":"""",""city"":"""",""state"":"""",""zip"":""""}', 'latitude': '41.74985294026319'}"
5006 S Western Blvd (Speed Camera),NB,SB,01/08/2018,41.802794,-87.683753,"{'needs_recoding': False, 'longitude': '-87.683753', 'human_address': '{""address"":"""",""city"":"""",""state"":"""",""zip"":""""}', 'latitude': '41.802794'}"
1754 N Pulaski Rd (Speed Camera),SB,NB,11/09/2015,41.91337483050126,-87.72658859994081,"{'needs_recoding': False, 'longitude': '-87.72658859994081', 'human_address': '{""address"":"""",""city"":"""",""state"":"""",""zip"":""""}', 'latitude': '41.91337483050126'}"
8020 W Forest Preserve Ave (Speed Camera),EB,WB,07/16/2018,41.944352,-87.827241,"{'needs_recoding': False, 'longitude': '-87.827241', 'human_address': '{""address"":"""",""city"":"""",""state"":"""",""zip"":""""}', 'latitude': '41.944352'}"
8043 W Addison St (Speed Camera),,EB,07/16/2018,41.944928,-87.827727,"{'needs_recoding': False, 'longitude': '-87.827727', 'human_address': '{""address"":"""",""city"":"""",""state"":"""",""zip"":""""}', 'latitude': '41.944928'}"
3911 W Diversey Ave (Speed Camera),EB,WB,07/16/2018,41.931868,-87.724595,"{'needs_recoding': False, 'longitude': '-87.724595', 'human_address': '{""address"":"""",""city"":"""",""state"":"""",""zip"":""""}', 'latitude': '41.931868'}"
8006 W Addison St (Speed Camera),WB,,07/16/2018,41.945054,-87.827043,"{'needs_recoding': False, 'longitude': '-87.827043', 'human_address': '{""address"":"""",""city"":"""",""state"":"""",""zip"":""""}', 'latitude': '41.945054'}"
7122 S South Chicago Ave (Speed Camera),SEB,,08/20/2018,41.765164,-87.604804,"{'needs_recoding': False, 'longitude': '-87.604804', 'human_address': '{""address"":"""",""city"":"""",""state"":"""",""zip"":""""}', 'latitude': '41.765164'}"
7157 S South Chicago Ave (Speed Camera),NWB,,08/20/2018,41.764716,-87.603742,"{'needs_recoding': False, 'longitude': '-87.603742', 'human_address': '{""address"":"""",""city"":"""",""state"":"""",""zip"":""""}', 'latitude': '41.764716'}"
819 E 71st St (Speed Camera),EB,WB,08/20/2018,41.765836,-87.605866,"{'needs_recoding': False, 'longitude': '-87.605866', 'human_address': '{""address"":"""",""city"":"""",""state"":"""",""zip"":""""}', 'latitude': '41.765836'}"
1455 W Division St(Speed Camera),EB,,09/05/2018,41.90329,-87.664873,"{'needs_recoding': False, 'longitude': '-87.664873', 'human_address': '{""address"":"""",""city"":"""",""state"":"""",""zip"":""""}', 'latitude': '41.90329'}"
1444 W Division St(Speed Camera),WB,,09/05/2018,41.903482,-87.664378,"{'needs_recoding': False, 'longitude': '-87.664378', 'human_address': '{""address"":"""",""city"":"""",""state"":"""",""zip"":""""}', 'latitude': '41.903482'}"
4246 W 47th St(Speed Camera),WB,,08/27/2018,41.807853,-87.730128,"{'needs_recoding': False, 'longitude': '-87.730128', 'human_address': '{""address"":"""",""city"":"""",""state"":"""",""zip"":""""}', 'latitude': '41.807853'}"
4319 W 47th St(Speed Camera),EB,,08/27/2018,41.807645,-87.731753,"{'needs_recoding': False, 'longitude': '-87.731753', 'human_address': '{""address"":"""",""city"":"""",""state"":"""",""zip"":""""}', 'latitude': '41.807645'}"
